NORAD_CAT_ID,OBJECT_NAME,OBJECT_TYPE,EPOCH,MEAN_MOTION,ECCENTRICITY,INCLINATION,RA_OF_ASC_NODE,ARG_OF_PERICENTER,MEAN_ANOMALY,BSTAR,MEAN_MOTION_DOT,MEAN_MOTION_DDOT,TLE_LINE0,TLE_LINE1,TLE_LINE2,SEMIMAJOR_AXIS,PERIOD,APOGEE,PERIGEE,DECAYED
52477.0,STARLINK-3860,PAYLOAD,2022-08-23 14:00:01,15.08807636,0.0001646,53.2133,98.5896,54.9559,235.2102,0.0020555,0.00032548,0.0,0 STARLINK-3860,1 52477U 22049AC  22235.58334491  .00032548  00000-0  20555-2 0  9994,2 52477  53.2133  98.5896 0001646  54.9559 235.2102 15.08807636  1306,6917.979,95.44,540.9830000000002,538.706,0.0
52477.0,STARLINK-3860,PAYLOAD,2022-08-23 22:00:01,15.0882089,0.0001831,53.2131,97.095,50.0561,251.7446,-0.00025094,-4.278e-05,0.0,0 STARLINK-3860,1 52477U 22049AC  22235.91668981 -.00004278  00000-0 -25094-3 0  9990,2 52477  53.2131  97.0950 0001831  50.0561 251.7446 15.08820890  1306,6917.939,95.439,541.07,538.5369999999998,0.0
52477.0,STARLINK-3860,PAYLOAD,2022-08-24 06:00:00,15.08839507,0.0001764999999999,53.2128,95.598,49.4094,263.8942,-0.0019447,-0.00031105,0.0,0 STARLINK-3860,1 52477U 22049AC  22236.25001157 -.00031105  00000-0 -19447-2 0  9997,2 52477  53.2128  95.5980 0001765  49.4094 263.8942 15.08839507 17281,6917.882,95.438,540.9680000000002,538.526,0.0
52477.0,STARLINK-3860,PAYLOAD,2022-08-24 14:00:01,15.08820155,0.0001646,53.2129,94.1005,55.7212,269.1634,0.0039431999999999,0.00062995,0.0,0 STARLINK-3860,1 52477U 22049AC  22236.58334491  .00062995  00000-0  39432-2 0  9998,2 52477  53.2129  94.1005 0001646  55.7212 269.1634 15.08820155  1307,6917.941,95.439,540.945,538.6669999999998,0.0
52477.0,STARLINK-3860,PAYLOAD,2022-08-24 22:00:00,15.08853318,0.0001805,53.2127,92.6058,49.2128,287.2731,-2.7758999999999995e-06,-3.32e-06,0.0,0 STARLINK-3860,1 52477U 22049AC  22236.91667824 -.00000332  00000-0 -27759-5 0  9995,2 52477  53.2127  92.6058 0001805  49.2128 287.2731 15.08853318  1303,6917.84,95.437,540.953,538.456,0.0
52477.0,STARLINK-3860,PAYLOAD,2022-08-25 14:00:01,15.08854537,0.0001695,53.2126,89.6108,55.6543,304.0611,0.0015958,0.00025211,0.0,0 STARLINK-3860,1 52477U 22049AC  22237.58334491  .00025211  00000-0  15958-2 0  9996,2 52477  53.2126  89.6108 0001695  55.6543 304.0611 15.08854537  1302,6917.8359999999975,95.437,540.874,538.528,0.0
52477.0,STARLINK-3860,PAYLOAD,2022-08-25 22:00:00,15.08868811,0.0001859,53.2126,88.116,49.3396,322.0003,-0.0014253,-0.00022918,0.0,0 STARLINK-3860,1 52477U 22049AC  22237.91667824 -.00022918  00000-0 -14253-2 0  9992,2 52477  53.2126  88.1160 0001859  49.3396 322.0003 15.08868811  1307,6917.792,95.436,540.943,538.371,0.0
52477.0,STARLINK-3860,PAYLOAD,2022-08-26 06:00:00,15.08863116,0.0001738,53.2125,86.6184,48.2562,334.7037,-0.0028464,-0.00045333,0.0,0 STARLINK-3860,1 52477U 22049AC  22238.25001157 -.00045333  00000-0 -28464-2 0  9996,2 52477  53.2125  86.6184 0001738  48.2562 334.7037 15.08863116 17581,6917.81,95.436,540.877,538.472,0.0
52477.0,STARLINK-3860,PAYLOAD,2022-08-26 14:00:01,15.08840453,0.0001686999999999,53.2127,85.1209,53.9446,340.6814,0.0012648,0.00019899,0.0,0 STARLINK-3860,1 52477U 22049AC  22238.58335648  .00019899  00000-0  12648-2 0  9990,2 52477  53.2127  85.1209 0001687  53.9446 340.6814 15.08840453  1303,6917.879,95.438,540.911,538.577,0.0
52477.0,STARLINK-3860,PAYLOAD,2022-08-26 20:00:01,15.088517,0.0001841999999999,53.2126,83.9999,49.3159,263.9506,-0.00092339,-0.00014959,0.0,0 STARLINK-3860,1 52477U 22049AC  22238.83334491 -.00014959  00000-0 -92339-3 0  9993,2 52477  53.2126  83.9999 0001842  49.3159 263.9506 15.08851700 17676,6917.845,95.437,540.984,538.435,0.0
52477.0,STARLINK-3860,PAYLOAD,2022-08-26 22:00:00,15.088402599999998,0.0001886999999999,53.2127,83.6261,48.6378,357.5326,0.00064819,0.00010043,0.0,0 STARLINK-3860,1 52477U 22049AC  22238.91667824  .00010043  00000-0  64819-3 0  9991,2 52477  53.2127  83.6261 0001887  48.6378 357.5326 15.08840260  1302,6917.88,95.438,541.05,538.439,0.0
52477.0,STARLINK-3860,PAYLOAD,2022-08-27 14:00:01,15.08844021,0.0001686999999999,53.213,80.6311,53.1213,16.2617,-0.00065834,-0.00010752,0.0,0 STARLINK-3860,1 52477U 22049AC  22239.58334491 -.00010752  00000-0 -65834-3 0  9993,2 52477  53.2130  80.6311 0001687  53.1213  16.2617 15.08844021  1307,6917.868,95.437,540.9,538.566,0.0
52477.0,STARLINK-3860,PAYLOAD,2022-08-27 22:00:00,15.08823163,0.000185,53.2131,79.1362,46.959,34.0243,0.0011292,0.00017721,0.0,0 STARLINK-3860,1 52477U 22049AC  22239.91667824  .00017721  00000-0  11292-2 0  9998,2 52477  53.2131  79.1362 0001850  46.9590  34.0243 15.08823163  1304,6917.932,95.439,541.077,538.5169999999998,0.0
52477.0,STARLINK-3860,PAYLOAD,2022-08-28 14:00:01,15.08848817,0.0001699,53.2134,76.1412,53.5826,50.5791,0.00044931,6.872e-05,0.0,0 STARLINK-3860,1 52477U 22049AC  22240.58334491  .00006872  00000-0  44931-3 0  9996,2 52477  53.2134  76.1412 0001699  53.5826  50.5791 15.08848817  1301,6917.853,95.437,540.894,538.543,0.0
52477.0,STARLINK-3860,PAYLOAD,2022-08-28 22:00:00,15.08840504,0.0001841999999999,53.2134,74.6463,46.9287,68.843,0.0005165,7.942e-05,0.0,0 STARLINK-3860,1 52477U 22049AC  22240.91667824  .00007942  00000-0  51650-3 0  9997,2 52477  53.2134  74.6463 0001842  46.9287  68.8430 15.08840504  1304,6917.879,95.438,541.018,538.47,0.0
52477.0,STARLINK-3860,PAYLOAD,2022-08-29 06:00:02,15.08845855,0.0001651,53.2133,73.1483,48.6104,78.8265,-0.0025156999999999,-0.00040109,0.0,0 STARLINK-3860,1 52477U 22049AC  22241.25002315 -.00040109  00000-0 -25157-2 0  9999,2 52477  53.2133  73.1483 0001651  48.6104  78.8265 15.08845855 18033,6917.861999999999,95.437,540.87,538.585,0.0
52477.0,STARLINK-3860,PAYLOAD,2022-08-29 14:00:01,15.08835299,0.00016,53.2136,71.6515,52.5933,86.361,-0.00013092,-2.371e-05,0.0,0 STARLINK-3860,1 52477U 22049AC  22241.58334491 -.00002371  00000-0 -13092-3 0  9993,2 52477  53.2136  71.6515 0001600  52.5933  86.3610 15.08835299  1304,6917.895,95.438,540.867,538.653,0.0
52477.0,STARLINK-3860,PAYLOAD,2022-08-29 22:00:00,15.08816269,0.0001757,53.2135,70.1566,45.7883,104.7614,0.0020475,0.00032427,0.0,0 STARLINK-3860,1 52477U 22049AC  22241.91667824  .00032427  00000-0  20475-2 0  9994,2 52477  53.2135  70.1566 0001757  45.7883 104.7614 15.08816269 18138,6917.953,95.439,541.033,538.602,0.0
52477.0,STARLINK-3860,PAYLOAD,2022-08-30 14:00:01,15.0884862,0.0001595,53.2136,67.1622,54.4409,119.2701,-0.00057985,-9.507e-05,0.0,0 STARLINK-3860,1 52477U 22049AC  22242.58334491 -.00009507  00000-0 -57985-3 0  9991,2 52477  53.2136  67.1622 0001595  54.4409 119.2701 15.08848620  1304,6917.854,95.437,540.822,538.616,0.0
52477.0,STARLINK-3860,PAYLOAD,2022-08-30 22:00:00,15.08822766,0.0001739,53.2135,65.6671,46.9876,138.3327,0.0024356,0.00038669,0.0,0 STARLINK-3860,1 52477U 22049AC  22242.91667824  .00038669  00000-0  24356-2 0  9991,2 52477  53.2135  65.6671 0001739  46.9876 138.3327 15.08822766  1303,6917.933000000001,95.439,541.001,538.595,0.0
52477.0,STARLINK-3860,PAYLOAD,2022-08-31 14:00:01,15.08835159,0.0001516,53.2135,62.6729,53.0226,155.4762,-0.00078841,-0.00012812,0.0,0 STARLINK-3860,1 52477U 22049AC  22243.58334491 -.00012812  00000-0 -78841-3 0  9999,2 52477  53.2135  62.6729 0001516  53.0226 155.4762 15.08835159  1308,6917.895,95.438,540.809,538.711,0.0
52477.0,STARLINK-3860,PAYLOAD,2022-08-31 22:00:00,15.08804571,0.0001682,53.2133,61.1779,45.4672,174.6212,0.0028134,0.00044728,0.0,0 STARLINK-3860,1 52477U 22049AC  22243.91667824  .00044728  00000-0  28134-2 0  9993,2 52477  53.2133  61.1779 0001682  45.4672 174.6212 15.08804571 18438,6917.989000000001,95.44,541.0169999999998,538.69,0.0
52477.0,STARLINK-3860,PAYLOAD,2022-09-01 14:00:01,15.08847695,0.0001573,53.2134,58.1836,53.2726,190.0286,-0.00095728,-0.00015494,0.0,0 STARLINK-3860,1 52477U 22049AC  22244.58335648 -.00015494  00000-0 -95728-3 0  9997,2 52477  53.2134  58.1836 0001573  53.2726 190.0286 15.08847695 18544,6917.857,95.437,540.81,538.634,0.0
52477.0,STARLINK-3860,PAYLOAD,2022-09-01 22:00:00,15.0881582,0.0001733,53.2134,56.6886,45.8332,209.0083,0.0030493,0.00048544,0.0,0 STARLINK-3860,1 52477U 22049AC  22244.91667824  .00048544  00000-0  30493-2 0  9995,2 52477  53.2134  56.6886 0001733  45.8332 209.0083 15.08815820  1307,6917.954000000002,95.439,541.018,538.62,0.0
52477.0,STARLINK-3860,PAYLOAD,2022-09-02 14:00:01,15.0886249,0.0001634,53.2136,53.6942,52.3489,225.6732,-0.0012457,-0.00020071,0.0,0 STARLINK-3860,1 52477U 22049AC  22245.58334491 -.00020071  00000-0 -12457-2 0  9997,2 52477  53.2136  53.6942 0001634  52.3489 225.6732 15.08862490 18695,6917.812,95.436,540.807,538.5459999999998,0.0
52477.0,STARLINK-3860,PAYLOAD,2022-09-02 22:00:01,15.08833045,0.0001744,53.2137,52.1991,44.1775,245.5248,0.00033051,4.975e-05,0.0,0 STARLINK-3860,1 52477U 22049AC  22245.91668981  .00004975  00000-0  33051-3 0  9995,2 52477  53.2137  52.1991 0001744  44.1775 245.5248 15.08833045  1300,6917.901999999999,95.438,540.9730000000002,538.56,0.0
52477.0,STARLINK-3860,PAYLOAD,2022-09-03 14:00:01,15.08851396,0.0001639,53.2141,49.2049,49.0718,263.7379,-0.0012664,-0.00020393,0.0,0 STARLINK-3860,1 52477U 22049AC  22246.58334491 -.00020393  00000-0 -12664-2 0  9995,2 52477  53.2141  49.2049 0001639  49.0718 263.7379 15.08851396  1306,6917.846,95.437,540.844,538.577,0.0
52477.0,STARLINK-3860,PAYLOAD,2022-09-03 22:00:00,15.08824359,0.0001789,53.2141,47.7097,43.0053,281.411,0.0030456,0.00048496,0.0,0 STARLINK-3860,1 52477U 22049AC  22246.91667824  .00048496  00000-0  30456-2 0  9992,2 52477  53.2141  47.7097 0001789  43.0053 281.4110 15.08824359 18895,6917.928000000001,95.439,541.031,538.556,0.0
52477.0,STARLINK-3860,PAYLOAD,2022-09-04 14:00:01,15.08851012,0.0001783,53.2145,44.7155,50.5491,297.1411,-0.0015007,-0.000241,0.0,0 STARLINK-3860,1 52477U 22049AC  22247.58335648 -.00024100  00000-0 -15007-2 0  9995,2 52477  53.2145  44.7155 0001783  50.5491 297.1411 15.08851012 18999,6917.847,95.437,540.945,538.4780000000002,0.0
